NORAD_CAT_ID,OBJECT_NAME,OBJECT_TYPE,EPOCH,MEAN_MOTION,ECCENTRICITY,INCLINATION,RA_OF_ASC_NODE,ARG_OF_PERICENTER,MEAN_ANOMALY,BSTAR,MEAN_MOTION_DOT,MEAN_MOTION_DDOT,TLE_LINE0,TLE_LINE1,TLE_LINE2,SEMIMAJOR_AXIS,PERIOD,APOGEE,PERIGEE,DECAYED
55410.0,STARLINK-5633,PAYLOAD,2024-04-20 21:51:22,14.98323088,0.0003195,70.0014,18.4339,260.7182,99.3616,9.462e-05,1.036e-05,0.0,0 STARLINK-5633,1 55410U 23014V   24111.91067732  .00001036  00000-0  94620-4 0  9994,2 55410  70.0014  18.4339 0003195 260.7182  99.3616 14.98323088 68544,6950.214,96.107,574.3,569.859,0.0
55410.0,STARLINK-5633,PAYLOAD,2024-04-21 04:15:55,14.98321685,0.0002785,70.0022,17.7581,258.6293,101.4553,5.5447e-05,5.69e-06,0.0,0 STARLINK-5633,1 55410U 23014V   24112.17772042  .00000569  00000-0  55447-4 0  9994,2 55410  70.0022  17.7581 0002785 258.6293 101.4553 14.98321685 68587,6950.219,96.108,574.019,570.148,0.0
55410.0,STARLINK-5633,PAYLOAD,2024-04-21 20:17:14,14.98348043,0.0002786,70.0017,16.0745,260.1912,99.8932,-0.0003213,-3.926e-05,0.0,0 STARLINK-5633,1 55410U 23014V   24112.84530957 -.00003926  00000-0 -32130-3 0  9990,2 55410  70.0017  16.0745 0002786 260.1912  99.8932 14.98348043 68681,6950.137,96.106,573.938,570.066,0.0
55410.0,STARLINK-5633,PAYLOAD,2024-04-21 21:53:22,14.98348417,0.0002716,70.0019,15.9064,259.1161,100.9693,-0.0002943,-3.604e-05,0.0,0 STARLINK-5633,1 55410U 23014V   24112.91206799 -.00003604  00000-0 -29430-3 0  9994,2 55410  70.0019  15.9064 0002716 259.1161 100.9693 14.98348417 68696,6950.136,96.106,573.889,570.113,0.0
55410.0,STARLINK-5633,PAYLOAD,2024-04-22 04:17:54,14.98352432,0.0002391,70.0025,15.2335,244.5421,115.5491,-0.00020135,-2.496e-05,0.0,0 STARLINK-5633,1 55410U 23014V   24113.17910032 -.00002496  00000-0 -20135-3 0  9996,2 55410  70.0025  15.2335 0002391 244.5421 115.5491 14.98352432 68738,6950.124,96.106,573.65,570.327,0.0
55410.0,STARLINK-5633,PAYLOAD,2024-04-22 20:19:15,14.98322891,0.000259,70.0023,13.5502,241.5787,118.5111,0.00027084,3.139e-05,0.0,0 STARLINK-5633,1 55410U 23014V   24113.84670707  .00003139  00000-0  27084-3 0  9995,2 55410  70.0023  13.5502 0002590 241.5787 118.5111 14.98322891 68835,6950.215,96.107,573.88,570.28,0.0
55410.0,STARLINK-5633,PAYLOAD,2024-04-22 21:55:23,14.98322824,0.0002587,70.0024,13.3819,240.1692,119.921,0.00026562,3.077e-05,0.0,0 STARLINK-5633,1 55410U 23014V   24113.91346746  .00003077  00000-0  26562-3 0  9997,2 55410  70.0024  13.3819 0002587 240.1692 119.9210 14.98322824 68843,6950.215,96.107,573.878,570.282,0.0
55410.0,STARLINK-5633,PAYLOAD,2024-04-23 02:43:48,14.98320658,0.000264,70.0021,12.8767,244.8145,115.2741,0.00020812,2.391e-05,0.0,0 STARLINK-5633,1 55410U 23014V   24114.11375085  .00002391  00000-0  20812-3 0  9998,2 55410  70.0021  12.8767 0002640 244.8145 115.2741 14.98320658 68874,6950.222,96.108,573.922,570.252,0.0
55410.0,STARLINK-5633,PAYLOAD,2024-04-23 20:21:15,14.98358976,0.0002687,70.0019,11.0254,237.9909,122.0989,-0.00032037,-3.916e-05,0.0,0 STARLINK-5633,1 55410U 23014V   24114.84809785 -.00003916  00000-0 -32037-3 0  9995,2 55410  70.0019  11.0254 0002687 237.9909 122.0989 14.98358976 68981,6950.103,96.105,573.836,570.101,0.0
55410.0,STARLINK-5633,PAYLOAD,2024-04-23 21:57:24,14.98333801,0.0002721,70.0015,10.857,249.5406,110.5461,0.00011447,1.273e-05,0.0,0 STARLINK-5633,1 55410U 23014V   24114.91486465  .00001273  00000-0  11447-3 0  9993,2 55410  70.0015  10.8570 0002721 249.5406 110.5461 14.98333801 68993,6950.181,96.107,573.937,570.155,0.0
55410.0,STARLINK-5633,PAYLOAD,2024-04-24 02:45:48,14.98335295,0.0002406,70.0018,10.3507,260.4753,99.6134,0.00014858,1.681e-05,0.0,0 STARLINK-5633,1 55410U 23014V   24115.11514401  .00001681  00000-0  14858-3 0  9990,2 55410  70.0018  10.3507 0002406 260.4753  99.6134 14.98335295 69026,6950.177,96.107,573.714,570.369,0.0
55410.0,STARLINK-5633,PAYLOAD,2024-04-24 20:23:17,14.98325718,0.0002146,70.003,8.5029,254.8595,105.2327,6.9734e-05,7.39e-06,0.0,0 STARLINK-5633,1 55410U 23014V   24115.84951269  .00000739  00000-0  69734-4 0  9994,2 55410  70.0030   8.5029 0002146 254.8595 105.2327 14.98325718 69139,6950.206,96.107,573.563,570.58,0.0
55410.0,STARLINK-5633,PAYLOAD,2024-04-24 21:59:25,14.98326793,0.0002323,70.0025,8.3336,263.8367,96.2527,2.3573e-05,1.88e-06,0.0,0 STARLINK-5633,1 55410U 23014V   24115.91627300  .00000188  00000-0  23573-4 0  9997,2 55410  70.0025   8.3336 0002323 263.8367  96.2527 14.98326793 69142,6950.203,96.107,573.682,570.453,0.0
55410.0,STARLINK-5633,PAYLOAD,2024-04-25 02:47:50,14.98329624,0.0002368,70.0024,7.8265,270.9015,89.1872,1.1235e-05,4.1e-07,0.0,0 STARLINK-5633,1 55410U 23014V   24116.11655159  .00000041  00000-0  11235-4 0  9993,2 55410  70.0024   7.8265 0002368 270.9015  89.1872 14.98329624 69177,6950.194,96.107,573.705,570.413,0.0
55410.0,STARLINK-5633,PAYLOAD,2024-04-25 20:25:18,14.9833401,0.0002691,70.0008,5.9744,268.8204,91.2647,7.4228e-05,7.93e-06,0.0,0 STARLINK-5633,1 55410U 23014V   24116.85090661  .00000793  00000-0  74228-4 0  9990,2 55410  70.0008   5.9744 0002691 268.8204  91.2647 14.98334010 69286,6950.18,96.107,573.916,570.175,0.0
55410.0,STARLINK-5633,PAYLOAD,2024-04-25 22:01:26,14.98333883,0.000263,70.001,5.8064,267.0251,93.0607,7.9074e-05,8.51e-06,0.0,0 STARLINK-5633,1 55410U 23014V   24116.91766661  .00000851  00000-0  79074-4 0  9996,2 55410  70.0010   5.8064 0002630 267.0251  93.0607 14.98333883 69293,6950.181,96.107,573.874,570.218,0.0
55410.0,STARLINK-5633,PAYLOAD,2024-04-26 09:14:22,14.98339432,0.0002661,70.0009,4.6272,268.0523,92.0332,4.9739e-05,5.01e-06,0.0,0 STARLINK-5633,1 55410U 23014V   24117.38498171  .00000501  00000-0  49739-4 0  9993,2 55410  70.0009   4.6272 0002661 268.0523  92.0332 14.98339432 69364,6950.164,96.106,573.878,570.179,0.0
55410.0,STARLINK-5633,PAYLOAD,2024-04-26 22:03:26,14.98339075,0.000283,70.0003,3.2807,268.7501,91.3334,0.00021028,2.417e-05,0.0,0 STARLINK-5633,1 55410U 23014V   24117.91905770  .00002417  00000-0  21028-3 0  9998,2 55410  70.0003   3.2807 0002830 268.7501  91.3334 14.98339075 69444,6950.165,96.106,573.997,570.063,0.0
55410.0,STARLINK-5633,PAYLOAD,2024-04-27 02:51:50,14.98347322,0.0002619,70.0006,2.7757,265.3653,94.7207,0.00032267,3.761e-05,0.0,0 STARLINK-5633,1 55410U 23014V   24118.11932977  .00003761  00000-0  32267-3 0  9990,2 55410  70.0006   2.7757 0002619 265.3653  94.7207 14.98347322 69474,6950.139,96.106,573.825,570.184,0.0
55410.0,STARLINK-5633,PAYLOAD,2024-04-27 20:29:20,14.98325082,0.0003317,69.9994,0.926,275.6111,84.467,-8.3433e-05,-1.088e-05,0.0,0 STARLINK-5633,1 55410U 23014V   24118.85370936 -.00001088  00000-0 -83433-4 0  9996,2 55410  69.9994   0.9260 0003317 275.6111  84.4670 14.98325082 69586,6950.208,96.107,574.378,569.768,0.0
55410.0,STARLINK-5633,PAYLOAD,2024-04-27 22:05:28,14.9832514,0.0003212,69.9992,0.7559,272.9083,87.1709,-5.4621e-05,-7.45e-06,0.0,0 STARLINK-5633,1 55410U 23014V   24118.92046866 -.00000745  00000-0 -54621-4 0  9992,2 55410  69.9992   0.7559 0003212 272.9083  87.1709 14.98325140 69594,6950.208,96.107,574.305,569.841,0.0
55410.0,STARLINK-5633,PAYLOAD,2024-04-28 09:18:24,14.98330887,0.0002913,69.9997,359.5768,277.3421,82.7407,-7.5823e-05,-9.98e-06,0.0,0 STARLINK-5633,1 55410U 23014V   24119.38778606 -.00000998  00000-0 -75823-4 0  9994,2 55410  69.9997 359.5768 0002913 277.3421  82.7407 14.98330887 69666,6950.19,96.107,574.08,570.031,0.0
55410.0,STARLINK-5633,PAYLOAD,2024-04-28 20:31:21,14.98327268,0.0002991,69.9999,358.3985,270.693,89.3886,8.9908e-06,1.4e-07,0.0,0 STARLINK-5633,1 55410U 23014V   24119.85510599  .00000014  00000-0  89908-5 0  9998,2 55410  69.9999 358.3985 0002991 270.6930  89.3886 14.98327268 69734,6950.201,96.107,574.145,569.988,0.0
55410.0,STARLINK-5633,PAYLOAD,2024-04-28 22:07:28,14.98334032,0.0003169,69.9995,358.2299,271.2701,88.8095,-6.7937e-05,-9.04e-06,0.0,0 STARLINK-5633,1 55410U 23014V   24119.92186258 -.00000904  00000-0 -67937-4 0  9994,2 55410  69.9995 358.2299 0003169 271.2701  88.8095 14.98334032 69742,6950.18,96.107,574.248,569.843,0.0
55410.0,STARLINK-5633,PAYLOAD,2024-04-29 09:20:25,14.98337885,0.0002894,69.9997,357.0512,273.6972,86.3856,-9.9688e-05,-1.282e-05,0.0,0 STARLINK-5633,1 55410U 23014V   24120.38917902 -.00001282  00000-0 -99688-4 0  9992,2 55410  69.9997 357.0512 0002894 273.6972  86.3856 14.98337885 69814,6950.169,96.106,574.045,570.022,0.0
55410.0,STARLINK-5633,PAYLOAD,2024-04-29 22:09:30,14.98323001,0.0003104,69.9995,355.7047,272.1845,87.8959,0.00025627,2.966e-05,0.0,0 STARLINK-5633,1 55410U 23014V   24120.92326443  .00002966  00000-0  25627-3 0  9995,2 55410  69.9995 355.7047 0003104 272.1845  87.8959 14.98323001 69891,6950.215,96.107,574.237,569.922,0.0
55410.0,STARLINK-5633,PAYLOAD,2024-04-30 01:21:45,14.98329284,0.0003069,69.9994,355.368,271.8741,88.2066,0.00023103,2.665e-05,0.0,0 STARLINK-5633,1 55410U 23014V   24121.05678173  .00002665  00000-0  23103-3 0  9993,2 55410  69.9994 355.3680 0003069 271.8741  88.2066 14.98329284 69916,6950.195,96.107,574.193,569.927,0.0
55410.0,STARLINK-5633,PAYLOAD,2024-04-30 09:22:26,14.98330284,0.0003073,69.9994,354.5264,271.7871,88.2936,0.00017383,1.982e-05,0.0,0 STARLINK-5633,1 55410U 23014V   24121.39058237  .00001982  00000-0  17383-3 0  9997,2 55410  69.9994 354.5264 0003073 271.7871  88.2936 14.98330284 69966,6950.192,96.107,574.193,569.921,0.0
55410.0,STARLINK-5633,PAYLOAD,2024-04-30 22:11:30,14.98334619,0.0003077,69.9994,353.1799,271.3795,88.7011,0.00014098,1.59e-05,0.0,0 STARLINK-5633,1 55410U 23014V   24121.92466098  .00001590  00000-0  14098-3 0  9999,2 55410  69.9994 353.1799 0003077 271.3795  88.7011 14.98334619 70045,6950.179,96.107,574.182,569.905,0.0
55410.0,STARLINK-5633,PAYLOAD,2024-05-01 01:23:46,14.98336624,0.0003051,69.9994,352.8432,271.0654,89.0155,0.00015875,1.802e-05,0.0,0 STARLINK-5633,1 55410U 23014V   24122.05817898  .00001802  00000-0  15875-3 0  9992,2 55410  69.9994 352.8432 0003051 271.0654  89.0155 14.98336624 70061,6950.172,96.107,574.158,569.917,0.0
